ISS OBJECT XW           
1 66910U 98067XW  26116.46420186  .00412789  74153-4  13960-2 0  9995
2 66910  51.6163 178.8035 0011534 358.1920   1.9042 15.89289121 22725
ISS OBJECT XY           
1 66912U 98067XY  26116.41799249  .00158883  00000+0  10587-2 0  9990
2 66912  51.6239 183.8294 0008084 354.8091   5.2823 15.74332297 22644
KNACKSAT-2              
1 67683U 98067XZ  26116.25625458  .00044626  00000+0  63922-3 0  9999
2 67683  51.6294 194.7914 0012362   5.5713 354.5413 15.55638730 12189
CORAL                   
1 67684U 98067YA  26116.46901470  .00114224  00000+0  12268-2 0  9992
2 67684  51.6274 191.7072 0016388 359.3731   0.7240 15.62746651 12247
GXIBA-1                 
1 67685U 98067YB  26116.49034929  .00052045  00000+0  71982-3 0  9993
2 67685  51.6291 193.3546 0014338   3.3425 356.7660 15.56487871 12227
UITMSAT-2               
1 67686U 98067YC  26116.38759396  .00065118  00000+0  84658-3 0  9993
2 67686  51.6294 193.4211 0011345 344.5178  15.5465 15.58095928 12213
HMU-SAT2                
1 67687U 98067YD  26116.43658689  .00052493  00000+0  73680-3 0  9998
2 67687  51.6295 193.7497 0010469 345.5390  14.5300 15.56142237 12139
LEOPARD                 
1 67688U 98067YE  26116.46931037  .00059906  00000+0  80136-3 0  9993
2 67688  51.6298 193.2184 0010968 344.9258  15.1406 15.57374215 12140
CREW DRAGON 12          
1 67796U 26031A   26116.52257038  .00009972  00000+0  18903-3 0  9995
2 67796  51.6321 195.8185 0006977 353.1614   6.9278 15.48971361563915
PROGRESS-MS 33          
1 68319U 26058A   26116.52257038  .00009972  00000+0  18903-3 0  9996
2 68319  51.6321 195.8185 0006977 353.1614   6.9278 15.48971361  5424
CYGNUS NG-24            
1 68689U 26079A   26115.61933538  .00010271  00000+0  19457-3 0  9993
2 68689  51.6320 200.2872 0006949 349.7097  10.3748 15.48952974  2249
PROGRESS-MS 34          
1 68837U 26093A   26116.23503560  .00040100  00000+0  20343-3 0  9991
2 68837  51.6342 197.6499 0010099  15.4664 344.6644 15.81015064    29
