[{"OBJECT_NAME":"ISS OBJECT XW","OBJECT_ID":"1998-067XW","EPOCH":"2026-04-26T11:08:27.040704","MEAN_MOTION":15.89289121,"ECCENTRICITY":0.0011534,"INCLINATION":51.6163,"RA_OF_ASC_NODE":178.8035,"ARG_OF_PERICENTER":358.192,"MEAN_ANOMALY":1.9042,"EPHEMERIS_TYPE":0,"CLASSIFICATION_TYPE":"U","NORAD_CAT_ID":66910,"ELEMENT_SET_NO":999,"REV_AT_EPOCH":2272,"BSTAR":0.001396,"MEAN_MOTION_DOT":0.00412789,"MEAN_MOTION_DDOT":7.4153e-5},{"OBJECT_NAME":"ISS OBJECT XY","OBJECT_ID":"1998-067XY","EPOCH":"2026-04-26T10:01:54.551136","MEAN_MOTION":15.74332297,"ECCENTRICITY":0.0008084,"INCLINATION":51.6239,"RA_OF_ASC_NODE":183.8294,"ARG_OF_PERICENTER":354.8091,"MEAN_ANOMALY":5.2823,"EPHEMERIS_TYPE":0,"CLASSIFICATION_TYPE":"U","NORAD_CAT_ID":66912,"ELEMENT_SET_NO":999,"REV_AT_EPOCH":2264,"BSTAR":0.0010587,"MEAN_MOTION_DOT":0.00158883,"MEAN_MOTION_DDOT":0},{"OBJECT_NAME":"KNACKSAT-2","OBJECT_ID":"1998-067XZ","EPOCH":"2026-04-26T06:09:00.395712","MEAN_MOTION":15.5563873,"ECCENTRICITY":0.0012362,"INCLINATION":51.6294,"RA_OF_ASC_NODE":194.7914,"ARG_OF_PERICENTER":5.5713,"MEAN_ANOMALY":354.5413,"EPHEMERIS_TYPE":0,"CLASSIFICATION_TYPE":"U","NORAD_CAT_ID":67683,"ELEMENT_SET_NO":999,"REV_AT_EPOCH":1218,"BSTAR":0.00063922,"MEAN_MOTION_DOT":0.00044626,"MEAN_MOTION_DDOT":0},{"OBJECT_NAME":"CORAL","OBJECT_ID":"1998-067YA","EPOCH":"2026-04-26T11:15:22.870080","MEAN_MOTION":15.62746651,"ECCENTRICITY":0.0016388,"INCLINATION":51.6274,"RA_OF_ASC_NODE":191.7072,"ARG_OF_PERICENTER":359.3731,"MEAN_ANOMALY":0.724,"EPHEMERIS_TYPE":0,"CLASSIFICATION_TYPE":"U","NORAD_CAT_ID":67684,"ELEMENT_SET_NO":999,"REV_AT_EPOCH":1224,"BSTAR":0.0012268,"MEAN_MOTION_DOT":0.00114224,"MEAN_MOTION_DDOT":0},{"OBJECT_NAME":"GXIBA-1","OBJECT_ID":"1998-067YB","EPOCH":"2026-04-26T11:46:06.178656","MEAN_MOTION":15.56487871,"ECCENTRICITY":0.0014338,"INCLINATION":51.6291,"RA_OF_ASC_NODE":193.3546,"ARG_OF_PERICENTER":3.3425,"MEAN_ANOMALY":356.766,"EPHEMERIS_TYPE":0,"CLASSIFICATION_TYPE":"U","NORAD_CAT_ID":67685,"ELEMENT_SET_NO":999,"REV_AT_EPOCH":1222,"BSTAR":0.00071982,"MEAN_MOTION_DOT":0.00052045,"MEAN_MOTION_DDOT":0},{"OBJECT_NAME":"UITMSAT-2","OBJECT_ID":"1998-067YC","EPOCH":"2026-04-26T09:18:08.118144","MEAN_MOTION":15.58095928,"ECCENTRICITY":0.0011345,"INCLINATION":51.6294,"RA_OF_ASC_NODE":193.4211,"ARG_OF_PERICENTER":344.5178,"MEAN_ANOMALY":15.5465,"EPHEMERIS_TYPE":0,"CLASSIFICATION_TYPE":"U","NORAD_CAT_ID":67686,"ELEMENT_SET_NO":999,"REV_AT_EPOCH":1221,"BSTAR":0.00084658,"MEAN_MOTION_DOT":0.00065118,"MEAN_MOTION_DDOT":0},{"OBJECT_NAME":"HMU-SAT2","OBJECT_ID":"1998-067YD","EPOCH":"2026-04-26T10:28:41.107296","MEAN_MOTION":15.56142237,"ECCENTRICITY":0.0010469,"INCLINATION":51.6295,"RA_OF_ASC_NODE":193.7497,"ARG_OF_PERICENTER":345.539,"MEAN_ANOMALY":14.53,"EPHEMERIS_TYPE":0,"CLASSIFICATION_TYPE":"U","NORAD_CAT_ID":67687,"ELEMENT_SET_NO":999,"REV_AT_EPOCH":1213,"BSTAR":0.0007368,"MEAN_MOTION_DOT":0.00052493,"MEAN_MOTION_DDOT":0},{"OBJECT_NAME":"LEOPARD","OBJECT_ID":"1998-067YE","EPOCH":"2026-04-26T11:15:48.415968","MEAN_MOTION":15.57374215,"ECCENTRICITY":0.0010968,"INCLINATION":51.6298,"RA_OF_ASC_NODE":193.2184,"ARG_OF_PERICENTER":344.9258,"MEAN_ANOMALY":15.1406,"EPHEMERIS_TYPE":0,"CLASSIFICATION_TYPE":"U","NORAD_CAT_ID":67688,"ELEMENT_SET_NO":999,"REV_AT_EPOCH":1214,"BSTAR":0.00080136,"MEAN_MOTION_DOT":0.00059906,"MEAN_MOTION_DDOT":0},{"OBJECT_NAME":"CREW DRAGON 12","OBJECT_ID":"2026-031A","EPOCH":"2026-04-26T12:32:30.080832","MEAN_MOTION":15.48971361,"ECCENTRICITY":0.0006977,"INCLINATION":51.6321,"RA_OF_ASC_NODE":195.8185,"ARG_OF_PERICENTER":353.1614,"MEAN_ANOMALY":6.9278,"EPHEMERIS_TYPE":0,"CLASSIFICATION_TYPE":"U","NORAD_CAT_ID":67796,"ELEMENT_SET_NO":999,"REV_AT_EPOCH":56391,"BSTAR":0.00018903,"MEAN_MOTION_DOT":9.972e-5,"MEAN_MOTION_DDOT":0},{"OBJECT_NAME":"PROGRESS-MS 33","OBJECT_ID":"2026-058A","EPOCH":"2026-04-26T12:32:30.080832","MEAN_MOTION":15.48971361,"ECCENTRICITY":0.0006977,"INCLINATION":51.6321,"RA_OF_ASC_NODE":195.8185,"ARG_OF_PERICENTER":353.1614,"MEAN_ANOMALY":6.9278,"EPHEMERIS_TYPE":0,"CLASSIFICATION_TYPE":"U","NORAD_CAT_ID":68319,"ELEMENT_SET_NO":999,"REV_AT_EPOCH":542,"BSTAR":0.00018903,"MEAN_MOTION_DOT":9.972e-5,"MEAN_MOTION_DDOT":0},{"OBJECT_NAME":"CYGNUS NG-24","OBJECT_ID":"2026-079A","EPOCH":"2026-04-25T14:51:50.576832","MEAN_MOTION":15.48952974,"ECCENTRICITY":0.00069494,"INCLINATION":51.632,"RA_OF_ASC_NODE":200.2872,"ARG_OF_PERICENTER":349.7097,"MEAN_ANOMALY":10.3748,"EPHEMERIS_TYPE":0,"CLASSIFICATION_TYPE":"U","NORAD_CAT_ID":68689,"ELEMENT_SET_NO":999,"REV_AT_EPOCH":224,"BSTAR":0.00019456761,"MEAN_MOTION_DOT":0.00010271,"MEAN_MOTION_DDOT":0},{"OBJECT_NAME":"PROGRESS-MS 34","OBJECT_ID":"2026-093A","EPOCH":"2026-04-26T05:38:27.075840","MEAN_MOTION":15.81015064,"ECCENTRICITY":0.0010099,"INCLINATION":51.6342,"RA_OF_ASC_NODE":197.6499,"ARG_OF_PERICENTER":15.4664,"MEAN_ANOMALY":344.6644,"EPHEMERIS_TYPE":0,"CLASSIFICATION_TYPE":"U","NORAD_CAT_ID":68837,"ELEMENT_SET_NO":999,"REV_AT_EPOCH":2,"BSTAR":0.00020343,"MEAN_MOTION_DOT":0.000401,"MEAN_MOTION_DDOT":0}]
